[{"OBJECT_NAME":"STARLINK-36279","OBJECT_ID":"2025-304B","EPOCH":"2026-03-09T16:21:40.901760","MEAN_MOTION":14.99121687,"ECCENTRICITY":0.00027352,"INCLINATION":70.0026,"RA_OF_ASC_NODE":174.4733,"ARG_OF_PERICENTER":265.5448,"MEAN_ANOMALY":94.5399,"EPHEMERIS_TYPE":0,"CLASSIFICATION_TYPE":"U","NORAD_CAT_ID":67193,"ELEMENT_SET_NO":999,"REV_AT_EPOCH":1388,"BSTAR":-0.00067849106,"MEAN_MOTION_DOT":-8.347e-5,"MEAN_MOTION_DDOT":0},{"OBJECT_NAME":"PEGASUS DEB","OBJECT_ID":"1994-029AFQ","EPOCH":"2026-03-08T03:35:33.923616","MEAN_MOTION":14.03181486,"ECCENTRICITY":0.04520735,"INCLINATION":82.1295,"RA_OF_ASC_NODE":34.4203,"ARG_OF_PERICENTER":342.2511,"MEAN_ANOMALY":16.3288,"EPHEMERIS_TYPE":0,"CLASSIFICATION_TYPE":"U","NORAD_CAT_ID":39917,"ELEMENT_SET_NO":999,"REV_AT_EPOCH":9491,"BSTAR":0.0063311837,"MEAN_MOTION_DOT":0.00024723,"MEAN_MOTION_DDOT":0}]
